NORAD_CAT_ID,OBJECT_NAME,OBJECT_TYPE,EPOCH,MEAN_MOTION,ECCENTRICITY,INCLINATION,RA_OF_ASC_NODE,ARG_OF_PERICENTER,MEAN_ANOMALY,BSTAR,MEAN_MOTION_DOT,MEAN_MOTION_DDOT,TLE_LINE0,TLE_LINE1,TLE_LINE2,SEMIMAJOR_AXIS,PERIOD,APOGEE,PERIGEE,DECAYED
50829.0,STARLINK-3294,PAYLOAD,2023-03-13 20:44:05,15.08836579,0.0001547,53.2168,30.5214,66.6957,293.4198,0.00092613,0.00014481,0.0,0 STARLINK-3294,1 50829U 22001AC  23072.86394915  .00014481  00000-0  92613-3 0  9990,2 50829  53.2168  30.5214 0001547  66.6957 293.4198 15.08836579 66844,6917.891,95.438,540.826,538.686,0.0
50829.0,STARLINK-3294,PAYLOAD,2023-03-14 14:13:19,15.08838291,0.0001751,53.2161,27.2409,116.2266,243.8907,0.00071699,0.00011141,0.0,0 STARLINK-3294,1 50829U 22001AC  23073.59259132  .00011141  00000-0  71699-3 0  9993,2 50829  53.2161  27.2409 0001751 116.2266 243.8907 15.08838291 65689,6917.886,95.438,540.962,538.539,0.0
50829.0,STARLINK-3294,PAYLOAD,2023-03-14 20:34:52,15.08844091,0.0001657,53.2152,26.052,111.4195,248.6974,0.00085199,0.00013299,0.0,0 STARLINK-3294,1 50829U 22001AC  23073.85755124  .00013299  00000-0  85199-3 0  9990,2 50829  53.2152  26.0520 0001657 111.4195 248.6974 15.08844091 66990,6917.868,95.437,540.879,538.587,0.0
50829.0,STARLINK-3294,PAYLOAD,2023-03-15 02:56:24,15.08865176,0.0001644,53.2155,24.8659,99.8833,260.2345,0.0016514,0.0002611,0.0,0 STARLINK-3294,1 50829U 22001AC  23074.12250708  .00026110  00000-0  16514-2 0  9999,2 50829  53.2155  24.8659 0001644  99.8833 260.2345 15.08865176 67031,6917.803,95.436,540.806,538.531,0.0
50829.0,STARLINK-3294,PAYLOAD,2023-03-15 06:07:10,15.08886175,0.0001609,53.2148,24.269,106.4806,253.6363,0.002029,0.00032192,0.0,0 STARLINK-3294,1 50829U 22001AC  23074.25498109  .00032192  00000-0  20290-2 0  9995,2 50829  53.2148  24.2690 0001609 106.4806 253.6363 15.08886175 67058,6917.739,95.435,540.717,538.491,0.0
50829.0,STARLINK-3294,PAYLOAD,2023-03-16 02:47:11,15.08856936,7.1e-05,53.216,20.4041,88.2299,271.8774,0.0018637,0.00029511,0.0,0 STARLINK-3294,1 50829U 22001AC  23075.11610320  .00029511  00000-0  18637-2 0  9995,2 50829  53.2160  20.4041 0000710  88.2299 271.8774 15.08856936 67189,6917.829,95.436,540.185,539.202,0.0
50829.0,STARLINK-3294,PAYLOAD,2023-03-16 05:57:57,15.08871727,9.52e-05,53.2151,19.8086,87.3596,272.7505,0.0023197,0.00036855,0.0,0 STARLINK-3294,1 50829U 22001AC  23075.24858060  .00036855  00000-0  23197-2 0  9990,2 50829  53.2151  19.8086 0000952  87.3596 272.7505 15.08871727 65936,6917.783,95.436,540.307,538.99,0.0
50829.0,STARLINK-3294,PAYLOAD,2023-03-16 23:27:12,15.08837152,0.0001101,53.2155,16.5373,116.3782,243.7323,0.0013286,0.00020918,0.0,0 STARLINK-3294,1 50829U 22001AC  23075.97723090  .00020918  00000-0  13286-2 0  9995,2 50829  53.2155  16.5373 0001101 116.3782 243.7323 15.08837152 67314,6917.889,95.438,540.516,538.992,0.0
50829.0,STARLINK-3294,PAYLOAD,2023-03-17 05:48:45,15.08835862,9.94e-05,53.216,15.3478,51.6685,308.4396,0.0012762,0.00020079,0.0,0 STARLINK-3294,1 50829U 22001AC  23076.24219495  .00020079  00000-0  12762-2 0  9991,2 50829  53.2160  15.3478 0000994  51.6685 308.4396 15.08835862 67354,6917.893,95.438,540.446,539.07,0.0
50829.0,STARLINK-3294,PAYLOAD,2023-03-18 12:01:04,15.08864833,9.45e-05,53.2154,9.6961,51.7933,308.3144,0.00084838,0.00013249,0.0,0 STARLINK-3294,1 50829U 22001AC  23077.50074569  .00013249  00000-0  84838-3 0  9997,2 50829  53.2154   9.6961 0000945  51.7933 308.3144 15.08864833 67544,6917.804,95.436,540.323,539.016,0.0
50829.0,STARLINK-3294,PAYLOAD,2023-03-19 02:19:33,15.08848625,0.0001377,53.2175,7.0281,79.1932,280.9215,9.4493e-05,1.217e-05,0.0,0 STARLINK-3294,1 50829U 22001AC  23078.09691054  .00001217  00000-0  94493-4 0  9997,2 50829  53.2175   7.0281 0001377  79.1932 280.9215 15.08848625 67632,6917.854,95.437,540.672,538.766,0.0
50829.0,STARLINK-3294,PAYLOAD,2023-03-19 11:51:51,15.08842447,0.0001234,53.2151,5.2396,54.936,305.1747,9.6298e-05,1.245e-05,0.0,0 STARLINK-3294,1 50829U 22001AC  23078.49435113  .00001245  00000-0  96298-4 0  9999,2 50829  53.2151   5.2396 0001234  54.9360 305.1747 15.08842447 66423,6917.873,95.437,540.592,538.884,0.0
50829.0,STARLINK-3294,PAYLOAD,2023-03-19 18:13:24,15.08838881,0.0001325,53.2161,4.0529,70.2887,289.8248,1.1843e-05,-9.9e-07,0.0,0 STARLINK-3294,1 50829U 22001AC  23078.75931346 -.00000099  00000-0  11843-4 0  9997,2 50829  53.2161   4.0529 0001325  70.2887 289.8248 15.08838881 67731,6917.884,95.438,540.665,538.832,0.0
50829.0,STARLINK-3294,PAYLOAD,2023-03-20 11:42:39,15.08834855,0.0001825,53.2168,0.7785,77.2863,282.8333,-4.9138e-05,-1.07e-05,0.0,0 STARLINK-3294,1 50829U 22001AC  23079.48795723 -.00001070  00000-0 -49138-4 0  9994,2 50829  53.2168   0.7785 0001825  77.2863 282.8333 15.08834855 66577,6917.896,95.438,541.024,538.499,0.0
50829.0,STARLINK-3294,PAYLOAD,2023-03-20 22:50:21,15.08844139,0.0001241,53.2172,358.6995,86.1302,273.9832,0.00023635,3.476e-05,0.0,0 STARLINK-3294,1 50829U 22001AC  23079.95163326  .00003476  00000-0  23635-3 0  9997,2 50829  53.2172 358.6995 0001241  86.1302 273.9832 15.08844139 67919,6917.868,95.437,540.591,538.874,0.0
50829.0,STARLINK-3294,PAYLOAD,2023-03-21 03:36:30,15.08856553,0.0001385,53.215,357.8046,73.9273,286.1872,0.00065154,0.00010101,0.0,0 STARLINK-3294,1 50829U 22001AC  23080.15034981  .00010101  00000-0  65154-3 0  9990,2 50829  53.2150 357.8046 0001385  73.9273 286.1872 15.08856553 66678,6917.83,95.437,540.653,538.737,0.0
50829.0,STARLINK-3294,PAYLOAD,2023-03-22 03:27:17,15.08850951,0.0001355,53.2165,353.3444,67.9162,292.1974,0.001527,0.00024105,0.0,0 STARLINK-3294,1 50829U 22001AC  23081.14395398  .00024105  00000-0  15270-2 0  9994,2 50829  53.2165 353.3444 0001355  67.9162 292.1974 15.08850951 68098,6917.847,95.437,540.649,538.775,0.0
50829.0,STARLINK-3294,PAYLOAD,2023-03-23 03:18:04,15.08863208,0.0001382,53.2158,348.8838,88.4651,271.6499,0.0017174,0.00027168,0.0,0 STARLINK-3294,1 50829U 22001AC  23082.13755088  .00027168  00000-0  17174-2 0  9997,2 50829  53.2158 348.8838 0001382  88.4651 271.6499 15.08863208 68247,6917.809,95.436,540.63,538.718,0.0
50829.0,STARLINK-3294,PAYLOAD,2023-03-23 20:47:19,15.08845842,0.0001474,53.2158,345.6131,94.2391,265.877,0.0020904,0.00033143,0.0,0 STARLINK-3294,1 50829U 22001AC  23082.86619856  .00033143  00000-0  20904-2 0  9994,2 50829  53.2158 345.6131 0001474  94.2391 265.8770 15.08845842 68359,6917.863,95.437,540.747,538.708,0.0
50829.0,STARLINK-3294,PAYLOAD,2023-03-23 22:22:42,15.08852598,0.0001377,53.2157,345.3155,77.2182,282.8964,0.0021641,0.00034334,0.0,0 STARLINK-3294,1 50829U 22001AC  23082.93243832  .00034334  00000-0  21641-2 0  9991,2 50829  53.2157 345.3155 0001377  77.2182 282.8964 15.08852598 67092,6917.842,95.437,540.659,538.754,0.0
50829.0,STARLINK-3294,PAYLOAD,2023-03-23 23:58:05,15.08865051,0.0001477,53.2158,345.0189,64.1133,296.0011,0.0028969,0.0004615,0.0,0 STARLINK-3294,1 50829U 22001AC  23082.99867779  .00046150  00000-0  28969-2 0  9998,2 50829  53.2158 345.0189 0001477  64.1133 296.0011 15.08865051 68379,6917.804,95.436,540.691,538.647,0.0
50829.0,STARLINK-3294,PAYLOAD,2023-03-24 20:38:04,15.08903669,0.0001146,53.216,341.1527,82.2308,277.8814,0.0021503,0.0003416,0.0,0 STARLINK-3294,1 50829U 22001AC  23083.85977800  .00034160  00000-0  21503-2 0  9996,2 50829  53.2160 341.1527 0001146  82.2308 277.8814 15.08903669 68504,6917.686,95.434,540.344,538.758,0.0
50829.0,STARLINK-3294,PAYLOAD,2023-03-24 22:13:27,15.08908504,0.0001205,53.2159,340.8553,79.5836,280.5292,0.0022056,0.00035055,0.0,0 STARLINK-3294,1 50829U 22001AC  23083.92601521  .00035055  00000-0  22056-2 0  9996,2 50829  53.2159 340.8553 0001205  79.5836 280.5292 15.08908504 67242,6917.671,95.433,540.37,538.702,0.0
50829.0,STARLINK-3294,PAYLOAD,2023-03-25 20:28:53,15.08817904,0.0001245,53.2157,336.6927,113.2082,246.9041,0.0013243,0.00020838,0.0,0 STARLINK-3294,1 50829U 22001AC  23084.85339408  .00020838  00000-0  13243-2 0  9992,2 50829  53.2157 336.6927 0001245 113.2082 246.9041 15.08817904 68658,6917.948,95.439,540.674,538.952,0.0
50829.0,STARLINK-3294,PAYLOAD,2023-03-25 22:04:16,15.08780812,0.0001073,53.2157,336.3953,91.1819,268.9296,0.00063026,9.741e-05,0.0,0 STARLINK-3294,1 50829U 22001AC  23084.91963661  .00009741  00000-0  63026-3 0  9998,2 50829  53.2157 336.3953 0001073  91.1819 268.9296 15.08780812 67398,6918.061,95.441,540.669,539.184,0.0
50829.0,STARLINK-3294,PAYLOAD,2023-03-26 02:50:26,15.08780963,0.0001131,53.2158,335.5029,88.0361,272.0761,0.00054133,8.324e-05,0.0,0 STARLINK-3294,1 50829U 22001AC  23085.11836669  .00008324  00000-0  54133-3 0  9993,2 50829  53.2158 335.5029 0001131  88.0361 272.0761 15.08780963 68690,6918.061,95.441,540.708,539.143,0.0
50829.0,STARLINK-3294,PAYLOAD,2023-03-26 20:19:42,15.08816573,0.0001175,53.2163,332.2328,98.9956,261.1169,0.001062,0.00016643,0.0,0 STARLINK-3294,1 50829U 22001AC  23085.84702097  .00016643  00000-0  10620-2 0  9995,2 50829  53.2163 332.2328 0001175  98.9956 261.1169 15.08816573 68801,6917.952,95.439,540.63,539.004,0.0
50829.0,STARLINK-3294,PAYLOAD,2023-03-26 21:55:05,15.08826288,0.0001184,53.216,331.9354,98.6189,261.4937,0.0014447,0.0002277,0.0,0 STARLINK-3294,1 50829U 22001AC  23085.91326119  .00022770  00000-0  14447-2 0  9999,2 50829  53.2160 331.9354 0001184  98.6189 261.4937 15.08826288 67548,6917.922,95.438,540.606,538.968,0.0
50829.0,STARLINK-3294,PAYLOAD,2023-03-27 02:41:15,15.08852369,0.0001126,53.2158,331.0429,93.1985,266.9136,0.0020992,0.0003329,0.0,0 STARLINK-3294,1 50829U 22001AC  23086.11197937  .00033290  00000-0  20992-2 0  9997,2 50829  53.2158 331.0429 0001126  93.1985 266.9136 15.08852369 68843,6917.843,95.437,540.487,538.929,0.0
50829.0,STARLINK-3294,PAYLOAD,2023-03-27 21:45:51,15.08878105,0.0001169,53.2161,327.4749,97.4842,262.6283,0.0015279,0.00024138,0.0,0 STARLINK-3294,1 50829U 22001AC  23086.90684850  .00024138  00000-0  15279-2 0  9992,2 50829  53.2161 327.4749 0001169  97.4842 262.6283 15.08878105 68962,6917.764,95.435,540.438,538.82,0.0
